{"fetched_at":"2026-03-29T16:36:15Z","count":15609,"tles":[{"name":"STARLINK-11569 [DTC]","line1":"1 62910U 25027D   26087.76629073  .00130509  00000+0  10032-2 0  9992","line2":"2 62910  42.9995 232.5647 0001443 259.7844 100.2861 15.70874986 66159","category":"Starlink"}]}